STARLINK-35625          
1 66140U 25237AC  25316.83336806 -.01188371  00000+0 -22744-1 0  9990
2 66140  53.1594 228.6525 0001201 116.5700 157.3377 15.50141839  4677
STARLINK-35603          
1 66141U 25237AD  25316.83336806 -.01201776  00000+0 -23018-1 0  9991
2 66141  53.1595 228.6442 0001130  91.1726 186.5715 15.50151059  4679
TJS-20                  
1 66142U 25238A   25316.61051441  .00000011  00000+0  00000+0 0  9998
2 66142   5.9551 300.4586 0001501 120.0896 273.7047  1.00273053   163
CZ-5 R/B                
1 66143U 25238B   25316.05645911  .00054368 -58670-6  15859-2 0  9997
2 66143  16.3176 266.8740 7592280 176.2192 198.0254  1.93958162   395
SPAINSAT NG II          
1 66144U 25239A   25315.24029741 -.00000300  00000+0  00000+0 0  9999
2 66144  21.6664 244.3422 7969636 184.0309 158.8894  1.07619643   224
STARLINK-35318          
1 66146U 25240A   25316.83336806 -.01955424  00000+0 -34894-1 0  9990
2 66146  53.1595 247.8493 0001198  97.3896 329.1533 15.52584706  4149
STARLINK-33948          
1 66147U 25240B   25316.83336806 -.01986517  00000+0 -35497-1 0  9998
2 66147  53.1595 247.8453 0000892 103.5877 324.8783 15.52600197  4147
STARLINK-35081          
1 66148U 25240C   25316.83336806 -.01983088  00000+0 -35426-1 0  9991
2 66148  53.1599 247.8412 0000927  98.1469 332.2273 15.52601809  4094
STARLINK-35601          
1 66149U 25240D   25316.83336806 -.01979369  00000+0 -35352-1 0  9997
2 66149  53.1599 247.8364 0000950  97.5265 334.7630 15.52601071  4099
STARLINK-35605          
1 66150U 25240E   25316.83336806 -.01972934  00000+0 -35229-1 0  9993
2 66150  53.1601 247.8334 0001097  87.1013 347.1084 15.52596328  4090
STARLINK-35540          
1 66151U 25240F   25316.83336806 -.01979932  00000+0 -35364-1 0  9999
2 66151  53.1600 247.8288 0001025  91.9499 344.1737 15.52599865  4091
STARLINK-35455          
1 66152U 25240G   25316.83336806 -.01986407  00000+0 -35492-1 0  9997
2 66152  53.1598 247.8250 0000952 106.3618 331.6817 15.52601771  4099
