CCSDS_OMM_VERS = 2.0
CREATION_DATE  = 
ORIGINATOR     = 

OBJECT_NAME    = STARLINK-35625
OBJECT_ID      = 2025-237AC
CENTER_NAME    = EARTH
REF_FRAME      = TEME
TIME_SYSTEM    = UTC
MEAN_ELEMENT_THEORY = SGP/SGP4

EPOCH          = 2025-11-12T20:00:03.000384
MEAN_MOTION    = 15.50141839
ECCENTRICITY   = .0001201
INCLINATION    = 53.1594
RA_OF_ASC_NODE = 228.6525
ARG_OF_PERICENTER = 116.5700
MEAN_ANOMALY   = 157.3377

EPHEMERIS_TYPE = 0
CLASSIFICATION_TYPE = U
NORAD_CAT_ID   = 66140
ELEMENT_SET_NO = 999
REV_AT_EPOCH   = 467
BSTAR          = -.22744E-1
MEAN_MOTION_DOT = -.1188371E-1
MEAN_MOTION_DDOT = 0

CCSDS_OMM_VERS = 2.0
CREATION_DATE  = 
ORIGINATOR     = 

OBJECT_NAME    = STARLINK-35603
OBJECT_ID      = 2025-237AD
CENTER_NAME    = EARTH
REF_FRAME      = TEME
TIME_SYSTEM    = UTC
MEAN_ELEMENT_THEORY = SGP/SGP4

EPOCH          = 2025-11-12T20:00:03.000384
MEAN_MOTION    = 15.50151059
ECCENTRICITY   = .000113
INCLINATION    = 53.1595
RA_OF_ASC_NODE = 228.6442
ARG_OF_PERICENTER = 91.1726
MEAN_ANOMALY   = 186.5715

EPHEMERIS_TYPE = 0
CLASSIFICATION_TYPE = U
NORAD_CAT_ID   = 66141
ELEMENT_SET_NO = 999
REV_AT_EPOCH   = 467
BSTAR          = -.23018E-1
MEAN_MOTION_DOT = -.1201776E-1
MEAN_MOTION_DDOT = 0

CCSDS_OMM_VERS = 2.0
CREATION_DATE  = 
ORIGINATOR     = 

OBJECT_NAME    = TJS-20
OBJECT_ID      = 2025-238A
CENTER_NAME    = EARTH
REF_FRAME      = TEME
TIME_SYSTEM    = UTC
MEAN_ELEMENT_THEORY = SGP/SGP4

EPOCH          = 2025-11-12T14:39:08.445024
MEAN_MOTION    = 1.00273053
ECCENTRICITY   = .0001501
INCLINATION    = 5.9551
RA_OF_ASC_NODE = 300.4586
ARG_OF_PERICENTER = 120.0896
MEAN_ANOMALY   = 273.7047

EPHEMERIS_TYPE = 0
CLASSIFICATION_TYPE = U
NORAD_CAT_ID   = 66142
ELEMENT_SET_NO = 999
REV_AT_EPOCH   = 16
BSTAR          = 0
MEAN_MOTION_DOT = .11E-6
MEAN_MOTION_DDOT = 0

CCSDS_OMM_VERS = 2.0
CREATION_DATE  = 
ORIGINATOR     = 

OBJECT_NAME    = CZ-5 R/B
OBJECT_ID      = 2025-238B
CENTER_NAME    = EARTH
REF_FRAME      = TEME
TIME_SYSTEM    = UTC
MEAN_ELEMENT_THEORY = SGP/SGP4

EPOCH          = 2025-11-12T01:21:18.067104
MEAN_MOTION    = 1.93958162
ECCENTRICITY   = .759228
INCLINATION    = 16.3176
RA_OF_ASC_NODE = 266.8740
ARG_OF_PERICENTER = 176.2192
MEAN_ANOMALY   = 198.0254

EPHEMERIS_TYPE = 0
CLASSIFICATION_TYPE = U
NORAD_CAT_ID   = 66143
ELEMENT_SET_NO = 999
REV_AT_EPOCH   = 39
BSTAR          = .15859E-2
MEAN_MOTION_DOT = .54368E-3
MEAN_MOTION_DDOT = -.5867E-6

CCSDS_OMM_VERS = 2.0
CREATION_DATE  = 
ORIGINATOR     = 

OBJECT_NAME    = SPAINSAT NG II
OBJECT_ID      = 2025-239A
CENTER_NAME    = EARTH
REF_FRAME      = TEME
TIME_SYSTEM    = UTC
MEAN_ELEMENT_THEORY = SGP/SGP4

EPOCH          = 2025-11-11T05:46:01.696224
MEAN_MOTION    = 1.07619643
ECCENTRICITY   = .7969636
INCLINATION    = 21.6664
RA_OF_ASC_NODE = 244.3422
ARG_OF_PERICENTER = 184.0309
MEAN_ANOMALY   = 158.8894

EPHEMERIS_TYPE = 0
CLASSIFICATION_TYPE = U
NORAD_CAT_ID   = 66144
ELEMENT_SET_NO = 999
REV_AT_EPOCH   = 22
BSTAR          = 0
MEAN_MOTION_DOT = -.3E-5
MEAN_MOTION_DDOT = 0

CCSDS_OMM_VERS = 2.0
CREATION_DATE  = 
ORIGINATOR     = 

OBJECT_NAME    = STARLINK-35318
OBJECT_ID      = 2025-240A
CENTER_NAME    = EARTH
REF_FRAME      = TEME
TIME_SYSTEM    = UTC
MEAN_ELEMENT_THEORY = SGP/SGP4

EPOCH          = 2025-11-12T20:00:03.000384
MEAN_MOTION    = 15.52584706
ECCENTRICITY   = .0001198
INCLINATION    = 53.1595
RA_OF_ASC_NODE = 247.8493
ARG_OF_PERICENTER = 97.3896
MEAN_ANOMALY   = 329.1533

EPHEMERIS_TYPE = 0
CLASSIFICATION_TYPE = U
NORAD_CAT_ID   = 66146
ELEMENT_SET_NO = 999
REV_AT_EPOCH   = 414
BSTAR          = -.34894E-1
MEAN_MOTION_DOT = -.1955424E-1
MEAN_MOTION_DDOT = 0

CCSDS_OMM_VERS = 2.0
CREATION_DATE  = 
ORIGINATOR     = 

OBJECT_NAME    = STARLINK-33948
OBJECT_ID      = 2025-240B
CENTER_NAME    = EARTH
REF_FRAME      = TEME
TIME_SYSTEM    = UTC
MEAN_ELEMENT_THEORY = SGP/SGP4

EPOCH          = 2025-11-12T20:00:03.000384
MEAN_MOTION    = 15.52600197
ECCENTRICITY   = .0000892
INCLINATION    = 53.1595
RA_OF_ASC_NODE = 247.8453
ARG_OF_PERICENTER = 103.5877
MEAN_ANOMALY   = 324.8783

EPHEMERIS_TYPE = 0
CLASSIFICATION_TYPE = U
NORAD_CAT_ID   = 66147
ELEMENT_SET_NO = 999
REV_AT_EPOCH   = 414
BSTAR          = -.35497E-1
MEAN_MOTION_DOT = -.1986517E-1
MEAN_MOTION_DDOT = 0

CCSDS_OMM_VERS = 2.0
CREATION_DATE  = 
ORIGINATOR     = 

OBJECT_NAME    = STARLINK-35081
OBJECT_ID      = 2025-240C
CENTER_NAME    = EARTH
REF_FRAME      = TEME
TIME_SYSTEM    = UTC
MEAN_ELEMENT_THEORY = SGP/SGP4

EPOCH          = 2025-11-12T20:00:03.000384
MEAN_MOTION    = 15.52601809
ECCENTRICITY   = .0000927
INCLINATION    = 53.1599
RA_OF_ASC_NODE = 247.8412
ARG_OF_PERICENTER = 98.1469
MEAN_ANOMALY   = 332.2273

EPHEMERIS_TYPE = 0
CLASSIFICATION_TYPE = U
NORAD_CAT_ID   = 66148
ELEMENT_SET_NO = 999
REV_AT_EPOCH   = 409
BSTAR          = -.35426E-1
MEAN_MOTION_DOT = -.1983088E-1
MEAN_MOTION_DDOT = 0

CCSDS_OMM_VERS = 2.0
CREATION_DATE  = 
ORIGINATOR     = 

OBJECT_NAME    = STARLINK-35601
OBJECT_ID      = 2025-240D
CENTER_NAME    = EARTH
REF_FRAME      = TEME
TIME_SYSTEM    = UTC
MEAN_ELEMENT_THEORY = SGP/SGP4

EPOCH          = 2025-11-12T20:00:03.000384
MEAN_MOTION    = 15.52601071
ECCENTRICITY   = .000095
INCLINATION    = 53.1599
RA_OF_ASC_NODE = 247.8364
ARG_OF_PERICENTER = 97.5265
MEAN_ANOMALY   = 334.7630

EPHEMERIS_TYPE = 0
CLASSIFICATION_TYPE = U
NORAD_CAT_ID   = 66149
ELEMENT_SET_NO = 999
REV_AT_EPOCH   = 409
BSTAR          = -.35352E-1
MEAN_MOTION_DOT = -.1979369E-1
MEAN_MOTION_DDOT = 0

CCSDS_OMM_VERS = 2.0
CREATION_DATE  = 
ORIGINATOR     = 

OBJECT_NAME    = STARLINK-35605
OBJECT_ID      = 2025-240E
CENTER_NAME    = EARTH
REF_FRAME      = TEME
TIME_SYSTEM    = UTC
MEAN_ELEMENT_THEORY = SGP/SGP4

EPOCH          = 2025-11-12T20:00:03.000384
MEAN_MOTION    = 15.52596328
ECCENTRICITY   = .0001097
INCLINATION    = 53.1601
RA_OF_ASC_NODE = 247.8334
ARG_OF_PERICENTER = 87.1013
MEAN_ANOMALY   = 347.1084

EPHEMERIS_TYPE = 0
CLASSIFICATION_TYPE = U
NORAD_CAT_ID   = 66150
ELEMENT_SET_NO = 999
REV_AT_EPOCH   = 409
BSTAR          = -.35229E-1
MEAN_MOTION_DOT = -.1972934E-1
MEAN_MOTION_DDOT = 0

CCSDS_OMM_VERS = 2.0
CREATION_DATE  = 
ORIGINATOR     = 

OBJECT_NAME    = STARLINK-35540
OBJECT_ID      = 2025-240F
CENTER_NAME    = EARTH
REF_FRAME      = TEME
TIME_SYSTEM    = UTC
MEAN_ELEMENT_THEORY = SGP/SGP4

EPOCH          = 2025-11-12T20:00:03.000384
MEAN_MOTION    = 15.52599865
ECCENTRICITY   = .0001025
INCLINATION    = 53.1600
RA_OF_ASC_NODE = 247.8288
ARG_OF_PERICENTER = 91.9499
MEAN_ANOMALY   = 344.1737

EPHEMERIS_TYPE = 0
CLASSIFICATION_TYPE = U
NORAD_CAT_ID   = 66151
ELEMENT_SET_NO = 999
REV_AT_EPOCH   = 409
BSTAR          = -.35364E-1
MEAN_MOTION_DOT = -.1979932E-1
MEAN_MOTION_DDOT = 0

CCSDS_OMM_VERS = 2.0
CREATION_DATE  = 
ORIGINATOR     = 

OBJECT_NAME    = STARLINK-35455
OBJECT_ID      = 2025-240G
CENTER_NAME    = EARTH
REF_FRAME      = TEME
TIME_SYSTEM    = UTC
MEAN_ELEMENT_THEORY = SGP/SGP4

EPOCH          = 2025-11-12T20:00:03.000384
MEAN_MOTION    = 15.52601771
ECCENTRICITY   = .0000952
INCLINATION    = 53.1598
RA_OF_ASC_NODE = 247.8250
ARG_OF_PERICENTER = 106.3618
MEAN_ANOMALY   = 331.6817

EPHEMERIS_TYPE = 0
CLASSIFICATION_TYPE = U
NORAD_CAT_ID   = 66152
ELEMENT_SET_NO = 999
REV_AT_EPOCH   = 409
BSTAR          = -.35492E-1
MEAN_MOTION_DOT = -.1986407E-1
MEAN_MOTION_DDOT = 0

